QZS-1R                  
1 49336U 21096A   23277.82445090 -.00000258  00000+0  00000+0 0  9990
2 49336  35.4165  94.4452 0745294 269.8513  80.5596  1.00282622  7119
